RADUGA 18 [-]           
1 16497U 86007A   17345.51847310  .00000009  00000-0  00000-0 0  9996
2 16497  14.9035 347.5005 0068549 122.3481  46.1479  0.98810521115134
